{
  "type": "FeatureCollection",
  "features": [
    {
      "type": "Feature",
      "properties": {
        "norad_id": 40310,
        "name": "YAOGAN-24",
        "group": "resource",
        "lat": NaN,
        "lon": NaN,
        "alt_km": NaN,
        "timestamp": "2025-12-01T03:03:40.644294+00:00",
        "meta": {
          "OBJECT_NAME": "YAOGAN-24",
          "OBJECT_ID": "2014-072A",
          "EPOCH": "2025-11-30T21:10:14.634912",
          "MEAN_MOTION": 14.76135197,
          "ECCENTRICITY": 0.0014098,
          "INCLINATION": 98.1216,
          "RA_OF_ASC_NODE": 105.913,
          "ARG_OF_PERICENTER": 174.9033,
          "MEAN_ANOMALY": 185.2322,
          "EPHEMERIS_TYPE": 0,
          "CLASSIFICATION_TYPE": "U",
          "NORAD_CAT_ID": 40310,
          "ELEMENT_SET_NO": 999,
          "REV_AT_EPOCH": 59446,
          "BSTAR": 0.00015467,
          "MEAN_MOTION_DOT": 1.017e-05,
          "MEAN_MOTION_DDOT": 0
        }
      },
      "geometry": {
        "type": "Point",
        "coordinates": [
          NaN,
          NaN
        ]
      }
    },
    {
      "type": "Feature",
      "properties": {
        "norad_id": 40336,
        "name": "CBERS 4",
        "group": "resource",
        "lat": NaN,
        "lon": NaN,
        "alt_km": NaN,
        "timestamp": "2025-12-01T03:03:40.644300+00:00",
        "meta": {
          "OBJECT_NAME": "CBERS 4",
          "OBJECT_ID": "2014-079A",
          "EPOCH": "2025-11-30T21:01:08.136768",
          "MEAN_MOTION": 14.35526481,
          "ECCENTRICITY": 0.0001372,
          "INCLINATION": 98.3326,
          "RA_OF_ASC_NODE": 33.2977,
          "ARG_OF_PERICENTER": 128.9994,
          "MEAN_ANOMALY": 231.1314,
          "EPHEMERIS_TYPE": 0,
          "CLASSIFICATION_TYPE": "U",
          "NORAD_CAT_ID": 40336,
          "ELEMENT_SET_NO": 999,
          "REV_AT_EPOCH": 57550,
          "BSTAR": 6.9005e-05,
          "MEAN_MOTION_DOT": 1.56e-06,
          "MEAN_MOTION_DDOT": 0
        }
      },
      "geometry": {
        "type": "Point",
        "coordinates": [
          NaN,
          NaN
        ]
      }
    },
    {
      "type": "Feature",
      "properties": {
        "norad_id": 40362,
        "name": "YAOGAN-26",
        "group": "resource",
        "lat": NaN,
        "lon": NaN,
        "alt_km": NaN,
        "timestamp": "2025-12-01T03:03:40.644306+00:00",
        "meta": {
          "OBJECT_NAME": "YAOGAN-26",
          "OBJECT_ID": "2014-088A",
          "EPOCH": "2025-11-30T20:03:13.001760",
          "MEAN_MOTION": 15.38669373,
          "ECCENTRICITY": 0.0007552,
          "INCLINATION": 97.0647,
          "RA_OF_ASC_NODE": 335.9401,
          "ARG_OF_PERICENTER": 61.2466,
          "MEAN_ANOMALY": 298.9538,
          "EPHEMERIS_TYPE": 0,
          "CLASSIFICATION_TYPE": "U",
          "NORAD_CAT_ID": 40362,
          "ELEMENT_SET_NO": 999,
          "REV_AT_EPOCH": 60711,
          "BSTAR": 0.00051797,
          "MEAN_MOTION_DOT": 0.00019753,
          "MEAN_MOTION_DDOT": 0
        }
      },
      "geometry": {
        "type": "Point",
        "coordinates": [
          NaN,
          NaN
        ]
      }
    },
    {
      "type": "Feature",
      "properties": {
        "norad_id": 40376,
        "name": "SMAP",
        "group": "resource",
        "lat": NaN,
        "lon": NaN,
        "alt_km": NaN,
        "timestamp": "2025-12-01T03:03:40.644312+00:00",
        "meta": {
          "OBJECT_NAME": "SMAP",
          "OBJECT_ID": "2015-003A",
          "EPOCH": "2025-11-30T18:56:16.264032",
          "MEAN_MOTION": 14.63351242,
          "ECCENTRICITY": 0.0001339,
          "INCLINATION": 98.1293,
          "RA_OF_ASC_NODE": 339.6852,
          "ARG_OF_PERICENTER": 90.0008,
          "MEAN_ANOMALY": 270.1347,
          "EPHEMERIS_TYPE": 0,
          "CLASSIFICATION_TYPE": "U",
          "NORAD_CAT_ID": 40376,
          "ELEMENT_SET_NO": 999,
          "REV_AT_EPOCH": 57860,
          "BSTAR": 0.00012542,
          "MEAN_MOTION_DOT": 6.01e-06,
          "MEAN_MOTION_DDOT": 0
        }
      },
      "geometry": {
        "type": "Point",
        "coordinates": [
          NaN,
          NaN
        ]
      }
    },
    {
      "type": "Feature",
      "properties": {
        "norad_id": 40536,
        "name": "KOMPSAT-3A",
        "group": "resource",
        "lat": NaN,
        "lon": NaN,
        "alt_km": NaN,
        "timestamp": "2025-12-01T03:03:40.644319+00:00",
        "meta": {
          "OBJECT_NAME": "KOMPSAT-3A",
          "OBJECT_ID": "2015-014A",
          "EPOCH": "2025-11-30T21:10:16.487328",
          "MEAN_MOTION": 15.43304441,
          "ECCENTRICITY": 0.0003395,
          "INCLINATION": 97.6771,
          "RA_OF_ASC_NODE": 308.5816,
          "ARG_OF_PERICENTER": 152.3179,
          "MEAN_ANOMALY": 207.8249,
          "EPHEMERIS_TYPE": 0,
          "CLASSIFICATION_TYPE": "U",
          "NORAD_CAT_ID": 40536,
          "ELEMENT_SET_NO": 999,
          "REV_AT_EPOCH": 59112,
          "BSTAR": 0.00045234,
          "MEAN_MOTION_DOT": 0.00020077,
          "MEAN_MOTION_DDOT": 0
        }
      },
      "geometry": {
        "type": "Point",
        "coordinates": [
          NaN,
          NaN
        ]
      }
    },
    {
      "type": "Feature",
      "properties": {
        "norad_id": 40697,
        "name": "SENTINEL-2A",
        "group": "resource",
        "lat": NaN,
        "lon": NaN,
        "alt_km": NaN,
        "timestamp": "2025-12-01T03:03:40.644328+00:00",
        "meta": {
          "OBJECT_NAME": "SENTINEL-2A",
          "OBJECT_ID": "2015-028A",
          "EPOCH": "2025-11-30T19:45:15.213600",
          "MEAN_MOTION": 14.3081949,
          "ECCENTRICITY": 0.0001045,
          "INCLINATION": 98.5708,
          "RA_OF_ASC_NODE": 47.5253,
          "ARG_OF_PERICENTER": 93.0661,
          "MEAN_ANOMALY": 267.0642,
          "EPHEMERIS_TYPE": 0,
          "CLASSIFICATION_TYPE": "U",
          "NORAD_CAT_ID": 40697,
          "ELEMENT_SET_NO": 999,
          "REV_AT_EPOCH": 54536,
          "BSTAR": 7.4026e-05,
          "MEAN_MOTION_DOT": 1.5e-06,
          "MEAN_MOTION_DDOT": 0
        }
      },
      "geometry": {
        "type": "Point",
        "coordinates": [
          NaN,
          NaN
        ]
      }
    },
    {
      "type": "Feature",
      "properties": {
        "norad_id": 40701,
        "name": "GAOFEN-8",
        "group": "resource",
        "lat": NaN,
        "lon": NaN,
        "alt_km": NaN,
        "timestamp": "2025-12-01T03:03:40.644333+00:00",
        "meta": {
          "OBJECT_NAME": "GAOFEN-8",
          "OBJECT_ID": "2015-030A",
          "EPOCH": "2025-11-30T20:46:10.354368",
          "MEAN_MOTION": 15.37933554,
          "ECCENTRICITY": 0.0011107,
          "INCLINATION": 97.6912,
          "RA_OF_ASC_NODE": 152.4324,
          "ARG_OF_PERICENTER": 180.2663,
          "MEAN_ANOMALY": 179.8577,
          "EPHEMERIS_TYPE": 0,
          "CLASSIFICATION_TYPE": "U",
          "NORAD_CAT_ID": 40701,
          "ELEMENT_SET_NO": 999,
          "REV_AT_EPOCH": 58088,
          "BSTAR": 0.00052939,
          "MEAN_MOTION_DOT": 0.00019726,
          "MEAN_MOTION_DDOT": 0
        }
      },
      "geometry": {
        "type": "Point",
        "coordinates": [
          NaN,
          NaN
        ]
      }
    },
    {
      "type": "Feature",
      "properties": {
        "norad_id": 40718,
        "name": "CARBONITE 1 (CBNT-1)",
        "group": "resource",
        "lat": NaN,
        "lon": NaN,
        "alt_km": NaN,
        "timestamp": "2025-12-01T03:03:40.644338+00:00",
        "meta": {
          "OBJECT_NAME": "CARBONITE 1 (CBNT-1)",
          "OBJECT_ID": "2015-032D",
          "EPOCH": "2025-11-30T20:07:44.196672",
          "MEAN_MOTION": 14.82652481,
          "ECCENTRICITY": 0.0013677,
          "INCLINATION": 97.6405,
          "RA_OF_ASC_NODE": 156.4072,
          "ARG_OF_PERICENTER": 221.9046,
          "MEAN_ANOMALY": 138.1123,
          "EPHEMERIS_TYPE": 0,
          "CLASSIFICATION_TYPE": "U",
          "NORAD_CAT_ID": 40718,
          "ELEMENT_SET_NO": 999,
          "REV_AT_EPOCH": 55994,
          "BSTAR": 0.00031651,
          "MEAN_MOTION_DOT": 2.504e-05,
          "MEAN_MOTION_DDOT": 0
        }
      },
      "geometry": {
        "type": "Point",
        "coordinates": [
          NaN,
          NaN
        ]
      }
    }
  ]
}