YAOGAN-24               
1 40310U 14072A   25334.88211383  .00001017  00000+0  15467-3 0  9997
2 40310  98.1216 105.9130 0014098 174.9033 185.2322 14.76135197594460
CBERS 4                 
1 40336U 14079A   25334.87578862  .00000156  00000+0  69005-4 0  9990
2 40336  98.3326  33.2977 0001372 128.9994 231.1314 14.35526481575501
YAOGAN-26               
1 40362U 14088A   25334.83556715  .00019753  00000+0  51797-3 0  9999
2 40362  97.0647 335.9401 0007552  61.2466 298.9538 15.38669373607119
SMAP                    
1 40376U 15003A   25334.78907713  .00000601  00000+0  12542-3 0  9991
2 40376  98.1293 339.6852 0001339  90.0008 270.1347 14.63351242578604
KOMPSAT-3A              
1 40536U 15014A   25334.88213527  .00020077  00000+0  45234-3 0  9998
2 40536  97.6771 308.5816 0003395 152.3179 207.8249 15.43304441591125
SENTINEL-2A             
1 40697U 15028A   25334.82309275  .00000150  00000+0  74026-4 0  9993
2 40697  98.5708  47.5253 0001045  93.0661 267.0642 14.30819490545365
GAOFEN-8                
1 40701U 15030A   25334.86539762  .00019726  00000+0  52939-3 0  9999
2 40701  97.6912 152.4324 0011107 180.2663 179.8577 15.37933554580883
CARBONITE 1 (CBNT-1)    
1 40718U 15032D   25334.83870598  .00002504  00000+0  31651-3 0  9995
2 40718  97.6405 156.4072 0013677 221.9046 138.1123 14.82652481559948
